[{"OBJECT_NAME":"STARLINK-31117","OBJECT_ID":"2024-011M","EPOCH":"2026-03-09T03:27:08.534592","MEAN_MOTION":15.30189861,"ECCENTRICITY":0.00010903,"INCLINATION":53.1623,"RA_OF_ASC_NODE":16.4221,"ARG_OF_PERICENTER":73.5689,"MEAN_ANOMALY":286.5432,"EPHEMERIS_TYPE":0,"CLASSIFICATION_TYPE":"U","NORAD_CAT_ID":58776,"ELEMENT_SET_NO":999,"REV_AT_EPOCH":12018,"BSTAR":3.6721194e-5,"MEAN_MOTION_DOT":7.28e-6,"MEAN_MOTION_DDOT":0},{"OBJECT_NAME":"CZ-2C R\/B","OBJECT_ID":"2014-014B","EPOCH":"2026-03-09T23:01:00.862464","MEAN_MOTION":15.34922702,"ECCENTRICITY":0.00700559,"INCLINATION":98.3314,"RA_OF_ASC_NODE":172.135,"ARG_OF_PERICENTER":276.2597,"MEAN_ANOMALY":83.0667,"EPHEMERIS_TYPE":0,"CLASSIFICATION_TYPE":"U","NORAD_CAT_ID":39625,"ELEMENT_SET_NO":999,"REV_AT_EPOCH":65564,"BSTAR":0.0004934259,"MEAN_MOTION_DOT":0.00018031,"MEAN_MOTION_DDOT":0}]
